[
    {
        "id": 1495,
        "code": "AG",
        "name": "Aşgabat",
        "name_ru": "Ашхабад",
        "parentId": null,
        "citySlug": "ashgabat"
    },
    {
        "id": 2497626252,
        "name": "Arzuw",
        "name_ru": "Арзув",
        "parentId": 1495,
        "citySlug": "ashgabat"
    },
    {
        "id": 2497626253,
        "name": "Atatürk köç.",
        "name_ru": "Улица Ататурка",
        "parentId": 1495,
        "citySlug": "ashgabat"
    },
    {
        "id": 2497626254,
        "name": "\"Altyn Asyr\" Gündogar bazary (Jygyllyk)",
        "name_ru": "\"Алтын Асыр\" Гундогар базары ( Толкучка)",
        "parentId": 1495,
        "citySlug": "ashgabat"
    },
    {
        "id": 2497626255,
        "name": "Arçabil şaýoly",
        "name_ru": "Арчабиль шаёлы",
        "parentId": 1495,
        "citySlug": "ashgabat"
    },
    {
        "id": 2497626256,
        "name": "Bagyr",
        "name_ru": "Багир",
        "parentId": 1495,
        "citySlug": "ashgabat"
    },
    {
        "id": 2497626257,
        "name": "Berzeňňi",
        "name_ru": "Берзенги",
        "parentId": 1495,
        "citySlug": "ashgabat"
    },
    {
        "id": 2497626258,
        "name": "Bekrewe",
        "name_ru": "Бекреве",
        "parentId": 1495,
        "citySlug": "ashgabat"
    },
    {
        "id": 2497626259,
        "name": "Bedew",
        "name_ru": "Бедев",
        "parentId": 1495,
        "citySlug": "ashgabat"
    },
    {
        "id": 2497626260,
        "name": "Podwoýski köç. (Bitarap Türkmenistan şaýoly)",
        "name_ru": "ул. Подвойского (Битарап Туркменистан шаёлы)",
        "parentId": 1495,
        "citySlug": "ashgabat"
    },
    {
        "id": 2497626261,
        "name": "Büzmeýin",
        "name_ru": "Бузмеин",
        "parentId": 1495,
        "citySlug": "ashgabat"
    },
    {
        "id": 2497626262,
        "name": "Büzmeýin GRES",
        "name_ru": "Бузмеин ГРЭС",
        "parentId": 1495,
        "citySlug": "ashgabat"
    },
    {
        "id": 2497626263,
        "name": "Çandybil şaýoly",
        "name_ru": "Чандыбиль шаёлы",
        "parentId": 1495,
        "citySlug": "ashgabat"
    },
    {
        "id": 2497626264,
        "name": "WDNH Söwda Merkezi",
        "name_ru": "ВДНХ торговый центр",
        "parentId": 1495,
        "citySlug": "ashgabat"
    },
    {
        "id": 2497626265,
        "name": "1 mkr",
        "name_ru": "1 мкр",
        "parentId": 1495,
        "citySlug": "ashgabat"
    },
    {
        "id": 2497626266,
        "name": "2 mkr",
        "name_ru": "2 мкр",
        "parentId": 1495,
        "citySlug": "ashgabat"
    },
    {
        "id": 2497626267,
        "name": "3 mkr",
        "name_ru": "3 мкр",
        "parentId": 1495,
        "citySlug": "ashgabat"
    },
    {
        "id": 2497626268,
        "name": "4 mkr",
        "name_ru": "4 мкр",
        "parentId": 1495,
        "citySlug": "ashgabat"
    },
    {
        "id": 2497626269,
        "name": "6 mkr",
        "name_ru": "6 мкр",
        "parentId": 1495,
        "citySlug": "ashgabat"
    },
    {
        "id": 2497626270,
        "name": "5 mkr",
        "name_ru": "5 мкр",
        "parentId": 1495,
        "citySlug": "ashgabat"
    },
    {
        "id": 2497626271,
        "name": "8 mkr",
        "name_ru": "8 мкр",
        "parentId": 1495,
        "citySlug": "ashgabat"
    },
    {
        "id": 2497626272,
        "name": "9 mkr",
        "name_ru": "9 мкр",
        "parentId": 1495,
        "citySlug": "ashgabat"
    },
    {
        "id": 2497626273,
        "name": "10 mkr",
        "name_ru": "10 мкр",
        "parentId": 1495,
        "citySlug": "ashgabat"
    },
    {
        "id": 2497626274,
        "name": "11 mkr",
        "name_ru": "11 мкр",
        "parentId": 1495,
        "citySlug": "ashgabat"
    },
    {
        "id": 2497626275,
        "name": "30 mkr",
        "name_ru": "30 мкр",
        "parentId": 1495,
        "citySlug": "ashgabat"
    },
    {
        "id": 2497626276,
        "name": "Howdan \"A\"",
        "name_ru": "Гаудан \"А\"",
        "parentId": 1495,
        "citySlug": "ashgabat"
    },
    {
        "id": 2497626277,
        "name": "Howdan \"B\"",
        "name_ru": "Гаудан \"Б\"",
        "parentId": 1495,
        "citySlug": "ashgabat"
    },
    {
        "id": 2497626278,
        "name": "Howdan \"W\"",
        "name_ru": "Гаудан \"В\"",
        "parentId": 1495,
        "citySlug": "ashgabat"
    },
    {
        "id": 2497626279,
        "name": "Türkmenbaşy şaýoly",
        "name_ru": "ул. Туркменбаши шаёлы (Ленина)",
        "parentId": 1495,
        "citySlug": "ashgabat"
    },
    {
        "id": 2497626280,
        "name": "Aýtakow (Oguzhan köç.)",
        "name_ru": "Айтакова (ул. Огузхана)",
        "parentId": 1495,
        "citySlug": "ashgabat"
    },
    {
        "id": 2497626281,
        "name": "14-nji tapgyr (Sowhozny köç)",
        "name_ru": "14 этап - Элитки (Улица Совхозная)",
        "parentId": 1495,
        "citySlug": "ashgabat"
    },
    {
        "id": 2497626282,
        "name": "15-nji tapgyr",
        "name_ru": "15-й этап",
        "parentId": 1495,
        "citySlug": "ashgabat"
    },
    {
        "id": 2497626283,
        "name": "Moskowskiý köç. (10 ýyl abadançylyk şaýoly)",
        "name_ru": "ул. Московская (10 йыл абаданчылык ш.)",
        "parentId": 1495,
        "citySlug": "ashgabat"
    },
    {
        "id": 2497626284,
        "name": "Nebitgaz (Andalib-Ankara köç.)",
        "name_ru": "Нефтегаз (ул. Андалиб-Юбилейная)",
        "parentId": 1495,
        "citySlug": "ashgabat"
    },
    {
        "id": 2497626285,
        "name": "Olimpiýa şäherçesi",
        "name_ru": "Олимпийский городок",
        "parentId": 1495,
        "citySlug": "ashgabat"
    },
    {
        "id": 2497626286,
        "name": "Sowetskiý köç. (Garaşsyzlyk şaýoly)",
        "name_ru": "ул. Советская (Гарашсызлык шаёлы)",
        "parentId": 1495,
        "citySlug": "ashgabat"
    },
    {
        "id": 2497626287,
        "name": "Garadamak",
        "name_ru": "Гарадамак",
        "parentId": 1495,
        "citySlug": "ashgabat"
    },
    {
        "id": 2497626288,
        "name": "Garadamak Şor",
        "name_ru": "Гарадамак Шор",
        "parentId": 1495,
        "citySlug": "ashgabat"
    },
    {
        "id": 2497626289,
        "name": "Gökje",
        "name_ru": "Гёкдже",
        "parentId": 1495,
        "citySlug": "ashgabat"
    },
    {
        "id": 2497626290,
        "name": "G.Kuliýew köç. (Obýezdnoý)",
        "name_ru": "Улица Г. Кулиева (Объездная)",
        "parentId": 1495,
        "citySlug": "ashgabat"
    },
    {
        "id": 2497626291,
        "name": "Gurtly",
        "name_ru": "Гуртли",
        "parentId": 1495,
        "citySlug": "ashgabat"
    },
    {
        "id": 2497626292,
        "name": "Dosaaf",
        "name_ru": "Досааф",
        "parentId": 1495,
        "citySlug": "ashgabat"
    },
    {
        "id": 2497626293,
        "name": "Kim raýon",
        "name_ru": "Ким район",
        "parentId": 1495,
        "citySlug": "ashgabat"
    },
    {
        "id": 2497626294,
        "name": "Köpetdag şaýoly",
        "name_ru": "Кёпетдаг шаёлы",
        "parentId": 1495,
        "citySlug": "ashgabat"
    },
    {
        "id": 2497626295,
        "name": "Köşi",
        "name_ru": "Кëши",
        "parentId": 1495,
        "citySlug": "ashgabat"
    },
    {
        "id": 2497626296,
        "name": "Parahat 1",
        "name_ru": "Мир 1",
        "parentId": 1495,
        "citySlug": "ashgabat"
    },
    {
        "id": 2497626297,
        "name": "Parahat 2",
        "name_ru": "Мир 2",
        "parentId": 1495,
        "citySlug": "ashgabat"
    },
    {
        "id": 2497626299,
        "name": "Parahat 3",
        "name_ru": "Мир 3",
        "parentId": 1495,
        "citySlug": "ashgabat"
    },
    {
        "id": 2497626300,
        "name": "Parahat 4",
        "name_ru": "Мир 4",
        "parentId": 1495,
        "citySlug": "ashgabat"
    },
    {
        "id": 2497626301,
        "name": "Parahat 6",
        "name_ru": "Мир 6",
        "parentId": 1495,
        "citySlug": "ashgabat"
    },
    {
        "id": 2497626303,
        "name": "Parahat 5",
        "name_ru": "Мир 5",
        "parentId": 1495,
        "citySlug": "ashgabat"
    },
    {
        "id": 2497626304,
        "name": "Parahat 7",
        "name_ru": "Мир 7",
        "parentId": 1495,
        "citySlug": "ashgabat"
    },
    {
        "id": 2497626305,
        "name": "Parahat 8",
        "name_ru": "Мир 8",
        "parentId": 1495,
        "citySlug": "ashgabat"
    },
    {
        "id": 2497626306,
        "name": "Gagarin köç, köne Howa menzili",
        "name_ru": "Район ст. Аэропорта, ул. Гагарина",
        "parentId": 1495,
        "citySlug": "ashgabat"
    },
    {
        "id": 2497626307,
        "name": "Gypjak",
        "name_ru": "Кипджак",
        "parentId": 1495,
        "citySlug": "ashgabat"
    },
    {
        "id": 2497626308,
        "name": "Ruhabat (90-njy razýezd)",
        "name_ru": "Рухабат (90-й разьезд)",
        "parentId": 1495,
        "citySlug": "ashgabat"
    },
    {
        "id": 2497626309,
        "name": "Täze zaman",
        "name_ru": "Тязе заман",
        "parentId": 1495,
        "citySlug": "ashgabat"
    },
    {
        "id": 2497626310,
        "name": "\"Berkarar\" SDAM",
        "name_ru": "ТРЦ \"Беркарар\"",
        "parentId": 1495,
        "citySlug": "ashgabat"
    },
    {
        "id": 2497626311,
        "name": "Garaşsyzlygyň 15 ýyllygy Söwda Merkezi",
        "name_ru": "Торговый центр \"15 лет Независимости\"",
        "parentId": 1495,
        "citySlug": "ashgabat"
    },
    {
        "id": 2497626312,
        "name": "Çoganly",
        "name_ru": "Чоганлы",
        "parentId": 1495,
        "citySlug": "ashgabat"
    },
    {
        "id": 2497626313,
        "name": "Hitrowka",
        "name_ru": "Хитровка",
        "parentId": 1495,
        "citySlug": "ashgabat"
    },
    {
        "id": 2497626314,
        "name": "Herrikgala",
        "name_ru": "Херрикгала",
        "parentId": 1495,
        "citySlug": "ashgabat"
    },
    {
        "id": 2497626315,
        "name": "Şor daça",
        "name_ru": "Шор дача",
        "parentId": 1495,
        "citySlug": "ashgabat"
    },
    {
        "id": 2497626316,
        "name": "Ýalkym",
        "name_ru": "Ялкым",
        "parentId": 1495,
        "citySlug": "ashgabat"
    },
    {
        "id": 2497626317,
        "name": "Ýanbaş",
        "name_ru": "Янбаш",
        "parentId": 1495,
        "citySlug": "ashgabat"
    },
    {
        "id": 3518041469,
        "name": "Çehow köç. (A.Nyýazow şaýoly)",
        "name_ru": "ул. Чехова -  Элитки (А.Ниязов шаёлы)",
        "parentId": 1495,
        "citySlug": "ashgabat"
    },
    {
        "id": 3518042741,
        "name": "13-nji tapgyr",
        "name_ru": "13-й этап",
        "parentId": 1495,
        "citySlug": "ashgabat"
    },
    {
        "id": 2868820848,
        "name": "16-njy tapgyr",
        "name_ru": "16-й этап",
        "parentId": 1495,
        "citySlug": "ashgabat"
    },
    {
        "id": 3269047593,
        "code": "ARKADAG",
        "name": "Arkadag",
        "name_ru": "Аркадаг",
        "parentId": null,
        "citySlug": "arkadag"
    },
    {
        "id": 45740,
        "code": "AH",
        "name": "Ahal welaýaty",
        "name_ru": "Ахалский велаят",
        "parentId": null,
        "citySlug": "ahal"
    },
    {
        "id": 2043162771,
        "name": "Ýaşlyk",
        "name_ru": "Яшлык",
        "parentId": 45740,
        "citySlug": "ahal"
    },
    {
        "id": 2043161933,
        "name": "Ak bugdaý etraby",
        "name_ru": "Ак-Бугдайский этрап",
        "parentId": 45740,
        "citySlug": "ahal"
    },
    {
        "id": 1446386427,
        "name": "Bäherden",
        "name_ru": "Бахарден",
        "parentId": 45740,
        "citySlug": "ahal"
    },
    {
        "id": 1446386551,
        "name": "Babadaýhan",
        "name_ru": "Бабадайхан",
        "parentId": 45740,
        "citySlug": "ahal"
    },
    {
        "id": 1446386666,
        "name": "Gökdepe",
        "name_ru": "Гёкдепе",
        "parentId": 45740,
        "citySlug": "ahal"
    },
    {
        "id": 1446386755,
        "name": "Kaka",
        "name_ru": "Кака",
        "parentId": 45740,
        "citySlug": "ahal"
    },
    {
        "id": 57168,
        "name": "Änew",
        "name_ru": "Анев",
        "parentId": 45740,
        "citySlug": "ahal"
    },
    {
        "id": 57169,
        "name": "Tejen",
        "name_ru": "Теджен",
        "parentId": 45740,
        "citySlug": "ahal"
    },
    {
        "id": 1449130625,
        "name": "Sarahs",
        "name_ru": "Серахс",
        "parentId": 45740,
        "citySlug": "ahal"
    },
    {
        "id": 1446387274,
        "code": "BL001",
        "name": "Balkan welaýaty",
        "name_ru": "Балканский велаят",
        "parentId": null,
        "citySlug": "balkan"
    },
    {
        "id": 1446386247,
        "name": "Magtymguly",
        "name_ru": "Махтумкули",
        "parentId": 1446387274,
        "citySlug": "balkan"
    },
    {
        "id": 1446387515,
        "name": "Bereket",
        "name_ru": "Берекет",
        "parentId": 1446387274,
        "citySlug": "balkan"
    },
    {
        "id": 1446387568,
        "name": "Etrek",
        "name_ru": "Этрек",
        "parentId": 1446387274,
        "citySlug": "balkan"
    },
    {
        "id": 1446387623,
        "name": "Esenguly",
        "name_ru": "Эсенгулы",
        "parentId": 1446387274,
        "citySlug": "balkan"
    },
    {
        "id": 1446387759,
        "name": "Gumdag",
        "name_ru": "Гумдаг",
        "parentId": 1446387274,
        "citySlug": "balkan"
    },
    {
        "id": 1446387833,
        "name": "Garabogaz",
        "name_ru": "Карабогаз",
        "parentId": 1446387274,
        "citySlug": "balkan"
    },
    {
        "id": 1499,
        "name": "Balkanabat",
        "name_ru": "Балканабат",
        "parentId": 1446387274,
        "citySlug": "balkan"
    },
    {
        "id": 1446387893,
        "name": "Hazar",
        "name_ru": "Хазар",
        "parentId": 1446387274,
        "citySlug": "balkan"
    },
    {
        "id": 1446388072,
        "name": "Gyzylarbat",
        "name_ru": "Гызыларбат",
        "parentId": 1446387274,
        "citySlug": "balkan"
    },
    {
        "id": 1500,
        "name": "Türkmenbaşy",
        "name_ru": "Туркменбаши",
        "parentId": 1446387274,
        "citySlug": "balkan"
    },
    {
        "id": 1449135553,
        "name": "Jebel",
        "name_ru": "Джебел",
        "parentId": 1446387274,
        "citySlug": "balkan"
    },
    {
        "id": 1445801702,
        "code": "MR002",
        "name": "Mary welaýaty",
        "name_ru": "Марыйский велаят",
        "parentId": null,
        "citySlug": "mary"
    },
    {
        "id": 1445212673,
        "name": "Ýolöten",
        "name_ru": "Ёлётен",
        "parentId": 1445801702,
        "citySlug": "mary"
    },
    {
        "id": 1445802103,
        "name": "Murgap",
        "name_ru": "Мургап",
        "parentId": 1445801702,
        "citySlug": "mary"
    },
    {
        "id": 1496,
        "name": "Mary",
        "name_ru": "Мары",
        "parentId": 1445801702,
        "citySlug": "mary"
    },
    {
        "id": 1445802195,
        "name": "Sakarçäge",
        "name_ru": "Сакарчага",
        "parentId": 1445801702,
        "citySlug": "mary"
    },
    {
        "id": 1445802370,
        "name": "Serhetabat (Guşgy)",
        "name_ru": "Серхетабат (Кушка)",
        "parentId": 1445801702,
        "citySlug": "mary"
    },
    {
        "id": 1445802444,
        "name": "Tagtabazar",
        "name_ru": "Тагтабазар",
        "parentId": 1445801702,
        "citySlug": "mary"
    },
    {
        "id": 1445802530,
        "name": "Türkmengala",
        "name_ru": "Туркменгала",
        "parentId": 1445801702,
        "citySlug": "mary"
    },
    {
        "id": 1445802611,
        "name": "Oguz han",
        "name_ru": "Огуз хан",
        "parentId": 1445801702,
        "citySlug": "mary"
        },
    {
        "id": 1501,
        "name": "Baýramaly",
        "name_ru": "Байрамали",
        "parentId": 1445801702,
        "citySlug": "mary"
    },
    {
        "id": 1445802682,
        "name": "Şatlyk",
        "name_ru": "Шатлык",
        "parentId": 1445801702,
        "citySlug": "mary"
    },
    {
        "id": 1818293560,
        "name": "Wekilbazar",
        "name_ru": "Векильбазар",
        "parentId": 1445801702,
        "citySlug": "mary"
    },
    {
        "id": 1968771078,
        "name": "Garagum etraby",
        "name_ru": "Каракумский этрап",
        "parentId": 1445801702,
        "citySlug": "mary"
    },
    {
        "id": 1445212926,
        "code": "LB",
        "name": "Lebap welaýaty",
        "name_ru": "Лебапский велаят",
        "parentId": null,
        "citySlug": "lebap"
    },
    {
        "id": 1445817204,
        "name": "Darganata",
        "name_ru": "Дарганата",
        "parentId": 1445212926,
        "citySlug": "lebap"
    },
    {
        "id": 1445817274,
        "name": "Farap",
        "name_ru": "Фарап",
        "parentId": 1445212926,
        "citySlug": "lebap"
    },
    {
        "id": 1445817363,
        "name": "Gazojak",
        "name_ru": "Газаджак",
        "parentId": 1445212926,
        "citySlug": "lebap"
    },
    {
        "id": 1445817466,
        "name": "Dänew",
        "name_ru": "Дянев",
        "parentId": 1445212926,
        "citySlug": "lebap"
    },
    {
        "id": 1445817569,
        "name": "Garabekewül",
        "name_ru": "Гарабекевюл",
        "parentId": 1445212926,
        "citySlug": "lebap"
    },
    {
        "id": 1497,
        "name": "Türkmenabat",
        "name_ru": "Туркменабат",
        "parentId": 1445212926,
        "citySlug": "lebap"
    },
    {
        "id": 1445817640,
        "name": "Dostluk",
        "name_ru": "Достлук",
        "parentId": 1445212926,
        "citySlug": "lebap"
    },
    {
        "id": 1445817793,
        "name": "Hojambaz",
        "name_ru": "Ходжамбаз",
        "parentId": 1445212926,
        "citySlug": "lebap"
    },
    {
        "id": 1445817950,
        "name": "Köýtendag",
        "name_ru": "Койтендаг",
        "parentId": 1445212926,
        "citySlug": "lebap"
    },
    {
        "id": 1445818119,
        "name": "Magdanly",
        "name_ru": "Магданлы",
        "parentId": 1445212926,
        "citySlug": "lebap"
    },
    {
        "id": 1502,
        "name": "Kerki",
        "name_ru": "Керки",
        "parentId": 1445212926,
        "citySlug": "lebap"
    },
    {
        "id": 1445818170,
        "name": "Sakar",
        "name_ru": "Сакар",
        "parentId": 1445212926,
        "citySlug": "lebap"
    },
    {
        "id": 1445818229,
        "name": "Saýat",
        "name_ru": "Саят",
        "parentId": 1445212926,
        "citySlug": "lebap"
    },
    {
        "id": 1445818326,
        "name": "Seýdi",
        "name_ru": "Сейди",
        "parentId": 1445212926,
        "citySlug": "lebap"
    },
    {
        "id": 1446675477,
        "name": "Çärjew",
        "name_ru": "Чарджоу",
        "parentId": 1445212926,
        "citySlug": "lebap"
    },
    {
        "id": 1452614257,
        "name": "Halaç",
        "name_ru": "Халач",
        "parentId": 1445212926,
        "citySlug": "lebap"
    },
    {
        "id": 1446389066,
        "code": "DZ006",
        "name": "Daşoguz welaýaty",
        "name_ru": "Дашогузский велаят",
        "parentId": null,
        "citySlug": "dashoguz"
    },
    {
        "id": 1446388604,
        "name": "Akdepe",
        "name_ru": "Акдепе",
        "parentId": 1446389066,
        "citySlug": "dashoguz"
    },
    {
        "id": 1446388738,
        "name": "Gurbansoltan Eje",
        "name_ru": "Гурбансолтан Едже",
        "parentId": 1446389066,
        "citySlug": "dashoguz"
    },
    {
        "id": 1446388813,
        "name": "Boldumsaz",
        "name_ru": "Болдумсаз",
        "parentId": 1446389066,
        "citySlug": "dashoguz"
    },
    {
        "id": 1446388869,
        "name": "Gubadag",
        "name_ru": "Губадаг",
        "parentId": 1446389066,
        "citySlug": "dashoguz"
    },
    {
        "id": 1498,
        "name": "Daşoguz",
        "name_ru": "Дашогуз",
        "parentId": 1446389066,
        "citySlug": "dashoguz"
    },
    {
        "id": 1446388961,
        "name": "Görogly (Tagta)",
        "name_ru": "Гороглы (Тагта)",
        "parentId": 1446389066,
        "citySlug": "dashoguz"
    },
    {
        "id": 1446945272,
        "name": "Türkmenbaşy etr.",
        "name_ru": "етр. Туркменбаши",
        "parentId": 1446389066,
        "citySlug": "dashoguz"
    },
    {
        "id": 1824919372,
        "name": "Ruhubelent etraby",
        "name_ru": "Рухубелентский этрап",
        "parentId": 1446389066,
        "citySlug": "dashoguz"
    },
    {
        "id": 328785339,
        "name": "Köneürgenç",
        "name_ru": "Кёнеургенч",
        "parentId": 1446389066,
        "citySlug": "dashoguz"
    },
    {
        "id": 1449131764,
        "name": "Şabat etr.",
        "name_ru": "Шабатский этрап",
        "parentId": 1446389066,
        "citySlug": "dashoguz"
    }
]